ASTRA 2D                
1 26638U 00081A   18003.73878459  .00000037  00000-0  00000-0 0  9997
2 26638   4.0360  69.1372 0001957 213.8377 145.9521  1.00271169 21963
AMC-8 (GE-8)            
1 26639U 00081B   18003.53053181  .00000096  00000-0  00000+0 0  9997
2 26639   0.0148  12.1952 0002899 271.6905 231.1933  1.00271025 62322
SKYNET 4F               
1 26695U 01005B   18002.94004262 -.00000258  00000-0  00000-0 0  9998
2 26695   9.1181  35.2586 0003286 245.9958 125.6030  1.00267798 61936
EUTELSAT 33C            
1 26719U 01011A   18004.54421090  .00000145  00000-0  00000+0 0  9995
2 26719   0.0588  15.3386 0005925 284.8873  32.8527  1.00272476 61637
INTELSAT 10 (IS-10)     
1 26766U 01019A   18003.91921257  .00000115  00000-0  00000-0 0  9993
2 26766   1.9394  84.2469 0004267 217.8069 179.8176  1.00271796 14692
INTELSAT 901 (IS-901)   
1 26824U 01024A   18004.48938227 -.00000151  00000-0  00000+0 0  9992
2 26824   0.0117 333.3498 0002684 306.3516 342.4994  1.00271020 60655
ASTRA 2C                
1 26853U 01025A   18004.04013554  .00000036  00000-0  00000+0 0  9995
2 26853   0.8278  91.0861 0003682 191.3661 255.8772  1.00272558 60633
INTELSAT 902 (IS-902)   
1 26900U 01039A   18003.90118719  .00000023  00000-0  00000-0 0  9993
2 26900   0.0430  73.2317 0003139 234.5682 182.0670  1.00273842 59774
EUTELSAT 12 WEST B      
1 26927U 01042A   18004.12684800 -.00000110  00000-0  00000+0 0  9997
2 26927   0.0628  17.8544 0006539 267.0090 211.9776  1.00270890 59587
DIRECTV 4S              
1 26985U 01052A   18004.56428124 -.00000124  00000-0  00000+0 0  9990
2 26985   0.0238  51.0416 0002979 237.0610 277.9647  1.00269831 59059
ECHOSTAR 7              
1 27378U 02006A   18004.47601087 -.00000010  00000-0  00000+0 0  9992
2 27378   0.0102 351.2668 0002258 258.2136 267.1045  1.00268445 58128
INTELSAT 904 (IS-904)   
1 27380U 02007A   18003.90670972  .00000127  00000-0  00000-0 0  9991
2 27380   0.0148  52.1234 0002983 239.2630 183.5967  1.00272078 20827
TDRS 9                  
1 27389U 02011A   18004.23904257 -.00000113  00000-0  00000+0 0  9993
2 27389   5.6599  76.6733 0023412 241.0995 219.9999  1.00270954 59492
JCSAT 2A                
1 27399U 02015A   18003.91337206 -.00000264  00000-0  00000-0 0  9994
2 27399   0.9076  91.4654 0007885 193.1394 240.6823  1.00270278 57959
ASTRA 3A                
1 27400U 02015B   18004.03070251 -.00000292  00000-0  00000+0 0  9995
2 27400   4.1955  67.8534 0003204 219.6612 140.1410  1.00272416 57778
INTELSAT 903 (IS-903)   
1 27403U 02016A   18004.13726650 -.00000234  00000-0  00000+0 0  9997
2 27403   0.2729  95.1735 0001068 227.5631 158.8517  1.00270210 57706
NSS-7                   
1 27414U 02019A   18002.99696683 -.00000164  00000-0  00000-0 0  9999
2 27414   2.3094  82.0147 0002563 212.9788 146.4858  1.00272084 57612
DIRECTV 5 (TEMPO 1)     
1 27426U 02023A   18003.02078871 -.00000062  00000-0  00000-0 0  9992
2 27426   0.0107  64.3147 0003717 226.6827  68.9523  1.00270721 57383
INTELSAT 905 (IS-905)   
1 27438U 02027A   18004.30191862 -.00000194  00000-0  00000+0 0  9992
2 27438   0.0109  37.4789 0002713 239.3615 271.2118  1.00273167 57029
EXPRESS-A4              
1 27441U 02029A   18004.51157189 -.00000257  00000-0  00000+0 0  9995
2 27441   6.3961  55.2617 0003409 104.4319 274.1656  1.00271860 57030
GALAXY 3C (G-3C)        
1 27445U 02030A   18003.97631138 -.00000160  00000-0  00000+0 0  9994
2 27445   0.0149 331.6509 0001524 341.5100  46.8126  1.00272940 57016
EUTELSAT 5 WEST A       
1 27460U 02035A   18003.72680127 -.00000051  00000-0  00000-0 0  9991
2 27460   0.0514  45.8386 0006004 242.5452  71.5376  1.00271520 56681
N-STAR C                
1 27461U 02035B   18004.44168475 -.00000322  00000-0  00000+0 0  9999
2 27461   5.0023  63.7112 0000402 342.8986 352.3740  1.00274760 56718
EUTELSAT 36 WEST A      
1 27508U 02040A   18003.81364077 -.00000255  00000-0  00000+0 0  9998
2 27508   0.0658  25.5998 0006022 306.7582  27.5966  1.00268286 56304
METEOSAT-8 (MSG-1)      
1 27509U 02040B   18004.04060381  .00000129  00000-0  00000+0 0  9995
2 27509   5.1880  57.5863 0001736 255.7302 206.2606  1.00277679 56307
INTELSAT 906 (IS-906)   
1 27513U 02041A   18004.14840940  .00000005  00000-0  00000+0 0  9992
2 27513   0.0237  76.5636 0002957 226.1825 278.5066  1.00272302 56028
KALPANA-1 (METSAT 1)    
1 27525U 02043A   18003.66023523 -.00000085  00000-0  00000+0 0  9992
2 27525   6.6778  53.9722 0016275 236.1064 123.6877  1.00271069 56098
HISPASAT 1D             
1 27528U 02044A   18003.75482059 -.00000225  00000-0  00000+0 0  9995
2 27528   0.0443 221.5104 0005909  51.7584  71.7783  1.00271309 56002
TDRS 10                 
1 27566U 02055A   18004.35484012  .00000066  00000-0  00000+0 0  9999
2 27566   5.3789  57.5390 0013145 226.5413 133.2708  1.00265792 55282
NSS-6                   
1 27603U 02057A   18004.38309985 -.00000279  00000-0  00000+0 0  9998
2 27603   0.0036  82.7377 0003355 202.4911  51.6098  1.00270668 55153
NIMIQ 2                 
1 27632U 02062A   18003.68851151 -.00000237  00000-0  00000-0 0  9990
2 27632   2.4056  81.0773 0004322 143.4297 216.1380  1.00273240 13268
INTELSAT 907 (IS-907)   
1 27683U 03007A   18003.78921576 -.00000211  00000-0  00000+0 0  9997
2 27683   0.0147  38.1389 0003164 247.2027  74.6235  1.00271552 54447
GALAXY 12 (G-12)        
1 27715U 03013B   18003.65991431  .00000051  00000-0  00000-0 0  9995
2 27715   0.0564 245.3137 0002489  29.2934 297.1832  1.00272909 21191
ASIASAT 4               
1 27718U 03014A   18003.91337206 -.00000193  00000-0  00000-0 0  9990
2 27718   0.0567  97.6209 0004925 109.1254 317.7206  0.99973586 53976
HELLAS-SAT 2            
1 27811U 03020A   18003.90670972  .00000143  00000-0  00000-0 0  9994
2 27811   0.0569 201.5633 0005909  63.8556 203.4363  1.00271117 11910
THURAYA-2               
1 27825U 03026A   18004.16782848  .00000119  00000-0  00000+0 0  9992
2 27825   5.0942  29.9227 0005207 245.5513 292.6805  1.00274818 53401
OPTUS C1                
1 27831U 03028B   18003.67776591 -.00000156  00000-0  00000-0 0  9997
2 27831   0.0568 228.0552 0003488  41.0391 234.1374  1.00271105 22114
ECHOSTAR 12 (RAINBOW 1) 
1 27852U 03033A   18003.84143132 -.00000208  00000-0  00000-0 0  9992
2 27852   0.0189 324.5975 0001703 305.0081  50.3171  1.00272143 53024
GALAXY 23 (G-23)        
1 27854U 03034A   18004.55769275  .00000003  00000-0  00000+0 0  9997
2 27854   0.0151  56.5469 0002845 228.3208 259.0126  1.00271619 57604
EUTELSAT 33A            
1 27948U 03043A   18003.92331556  .00000141  00000-0  00000-0 0  9992
2 27948   2.7731  77.5764 0004073 236.0857 153.0516  1.00271833 14532
GALAXY 13 (HORIZONS-1)  
1 27954U 03044A   18004.51548885  .00000038  00000-0  00000+0 0  9995
2 27954   0.0125 130.5983 0001604 232.1827 159.8124  1.00273307 52215
ZHONGXING-20            
1 28082U 03052A   18003.92456632 -.00000054  00000-0  00000-0 0  9999
2 28082   3.8995  70.3715 0004808 212.7571 183.4312  0.98747918 51814
YAMAL 202               
1 28089U 03053A   18003.91906208  .00000111  00000-0  00000-0 0  9998
2 28089   0.0592  91.7595 0004161 188.8524 202.6847  1.00271901 51735
EXPRESS-AM22 (SESAT 2)  
1 28134U 03060A   18004.13868642 -.00000147  00000-0  00000+0 0  9990
2 28134   0.8773  90.5694 0000381 234.3689 268.7743  1.00271277 51331
AMC-10 (GE-10)          
1 28154U 04003A   18004.51226911  .00000078  00000-0  00000+0 0  9991
2 28154   0.0259 310.2725 0000796 355.9631 207.2223  1.00271430 50991
ABS-4 (MOBISAT-1)       
1 28184U 04007A   18004.29632625  .00000032  00000-0  00000+0 0  9996
2 28184   0.0252  56.4290 0001694 222.0062 353.0506  1.00268957 50638
EUTELSAT 7A             
1 28187U 04008A   18004.30160498  .00000037  00000-0  00000+0 0  9991
2 28187   0.0615  10.6446 0004689 256.6469 312.1252  1.00269958 50636
DIRECTV 7S              
1 28238U 04016A   18003.80323704 -.00000008  00000-0  00000+0 0  9991
2 28238   0.0103  22.3442 0003045 277.6133 333.4831  1.00272285 50116
AMC-11 (GE-11)          
1 28252U 04017A   18004.55851316  .00000059  00000-0  00000+0 0  9991
2 28252   0.0161  10.2785 0002981 286.0442 237.8375  1.00269911 49768
INTELSAT 10-02          
1 28358U 04022A   18004.09563201 -.00000021  00000-0  00000+0 0  9996
2 28358   0.0170  96.9642 0000781 233.2032 166.9051  1.00269001 49687
APSTAR 5 (TELSTAR 18)   
1 28364U 04024A   18003.80049219 -.00000303  00000-0  00000+0 0  9994
2 28364   0.0397 287.8916 0003217   0.3346 241.3007  1.00271735 49606
ANIK F2                 
1 28378U 04027A   18003.80271622 -.00000058  00000-0  00000-0 0  9995
2 28378   0.0160  53.2809 0000407 233.4500 354.5255  1.00269486 10345
AMC-15                  
1 28446U 04041A   18003.79840979 -.00000097  00000-0  00000-0 0  9995
2 28446   0.0197  35.4016 0003177 248.5995   1.7246  1.00271074 48444
AMC-16                  
1 28472U 04048A   18003.84143132 -.00000214  00000-0  00000-0 0  9995
2 28472   0.0191 341.0629 0003054 316.7917  23.4523  1.00270315 47792
NSS-10 (AMC-12)         
1 28526U 05003A   18004.20409069 -.00000260  00000-0  00000+0 0  9992
2 28526   0.0196 334.6634 0003089 317.7458 207.3676  1.00270979 47372
XTAR-EUR                
1 28542U 05005A   18003.63269981  .00000143  00000-0  00000-0 0  9995
2 28542   0.0516  91.7995 0003277 200.6043  67.5486  1.00270906 47236
XM-3 (RHYTHM)           
1 28626U 05008A   18004.38657003 -.00000216  00000-0  00000+0 0  9991
2 28626   0.0186 202.3476 0000566 164.2546 151.3857  1.00271520 47122
INMARSAT 4-F1           
1 28628U 05009A   18004.35422102 -.00000272  00000-0  00000+0 0  9993
2 28628   2.9027  14.8481 0003373 276.7825  83.2803  1.00270767 46731
APSTAR 6                
1 28638U 05012A   18004.44163902 -.00000328  00000-0  00000+0 0  9990
2 28638   0.0240  62.3913 0002915 228.0757 106.5166  1.00271695 71472
